GLOBALSTAR M070         
1 32264U 07048B   24285.45141182  .00000006  00000+0  60962-3 0  9994
2 32264  51.9737 166.2459 0000628  65.7096 105.4389 12.62303094782257
GLOBALSTAR M066         
1 32265U 07048C   24283.58622405 -.00000061  00000+0  25096-3 0  9990
2 32265  51.9697  36.8458 0001199  46.6162 326.1981 12.53547548785178
GLOBALSTAR M068         
1 32266U 07048D   24285.56632883 -.00000022  00000+0  45339-3 0  9991
2 32266  51.9909 340.1266 0000544 322.8340 208.5411 12.62802824786143
GLOBALSTAR M079         
1 37188U 10054A   24285.48434414 -.00000083  00000+0  11690-3 0  9991
2 37188  52.0025 176.8795 0001082  80.2686  90.9776 12.62265587645048
GLOBALSTAR M074         
1 37189U 10054B   24285.43294304 -.00000043  00000+0  33996-3 0  9998
2 37189  52.0008 176.3924 0000673  82.3789  98.1137 12.62257596645649
GLOBALSTAR M076         
1 37190U 10054C   24285.45841020 -.00000039  00000+0  36300-3 0  9992
2 37190  52.0018 176.4704 0000899  97.3315  74.3720 12.62271756645367
GLOBALSTAR M077         
1 37191U 10054D   24285.49233175 -.00000085  00000+0  10534-3 0  9995
2 37191  52.0053 133.1495 0000873  84.2163 302.8888 12.62265361645743
